ONEWEB-0080             
1 45426U 20020C   24257.76891047  .00000533  00000+0  14680-2 0  9998
2 45426  87.8975 148.8086 0001787  86.7449 273.3884 13.11419063218648
ONEWEB-0090             
1 45427U 20020D   24258.09105466  .00000255  00000+0  68391-3 0  9999
2 45427  87.8979 148.7321 0001791  75.5370 284.5956 13.11414283218652
ONEWEB-0061             
1 45428U 20020E   24257.43644245 -.00000540  00000+0 -15599-2 0  9990
2 45428  87.8979 148.8556 0001769  74.6202 285.5121 13.11417260218511
ONEWEB-0081             
1 45429U 20020F   24257.95201187 -.00000318  00000+0 -93218-3 0  9990
2 45429  87.8976 148.7722 0001558  75.5948 284.5353 13.11418090218693
ONEWEB-0069             
1 45430U 20020G   24258.17073879  .00000055  00000+0  11864-3 0  9995
2 45430  87.8976 148.7180 0001822  76.4735 283.6596 13.11416176218660
ONEWEB-0031             
1 45431U 20020H   24257.76043430  .00000454  00000+0  12450-2 0  9994
2 45431  87.8983 148.8125 0001842  73.8704 286.2626 13.11422854218582
ONEWEB-0027             
1 45432U 20020J   24258.40475860  .00000088  00000+0  19260-3 0  9993
2 45432  87.9135 133.4920 0002085  74.1795 285.9566 13.17651724221972
ONEWEB-0064             
1 45433U 20020K   24257.45357575  .00000492  00000+0  13512-2 0  9992
2 45433  87.8979 148.8784 0002001  77.0091 283.1260 13.11420412218581
