<?xml version="1.0" encoding="UTF-8"?>
<ndm xmlns:xsi="http://www.w3.org/2001/XMLSchema-instance" xsi:noNamespaceSchemaLocation="https://sanaregistry.org/r/ndmxml_unqualified/ndmxml-2.0.0-master-2.0.xsd">
<omm id="CCSDS_OMM_VERS" version="2.0">
<header><CREATION_DATE/><ORIGINATOR/></header><body><segment><metadata><OBJECT_NAME>ONEWEB-0080</OBJECT_NAME><OBJECT_ID>2020-020C</OBJECT_ID><CENTER_NAME>EARTH</CENTER_NAME><REF_FRAME>TEME</REF_FRAME><TIME_SYSTEM>UTC</TIME_SYSTEM><MEAN_ELEMENT_THEORY>SGP4</MEAN_ELEMENT_THEORY></metadata><data><meanElements><EPOCH>2024-09-13T18:27:13.864608</EPOCH><MEAN_MOTION>13.11419063</MEAN_MOTION><ECCENTRICITY>.0001787</ECCENTRICITY><INCLINATION>87.8975</INCLINATION><RA_OF_ASC_NODE>148.8086</RA_OF_ASC_NODE><ARG_OF_PERICENTER>86.7449</ARG_OF_PERICENTER><MEAN_ANOMALY>273.3884</MEAN_ANOMALY></meanElements><tleParameters><EPHEMERIS_TYPE>0</EPHEMERIS_TYPE><CLASSIFICATION_TYPE>U</CLASSIFICATION_TYPE><NORAD_CAT_ID>45426</NORAD_CAT_ID><ELEMENT_SET_NO>999</ELEMENT_SET_NO><REV_AT_EPOCH>21864</REV_AT_EPOCH><BSTAR>.1468E-2</BSTAR><MEAN_MOTION_DOT>.533E-5</MEAN_MOTION_DOT><MEAN_MOTION_DDOT>0</MEAN_MOTION_DDOT></tleParameters></data></segment></body></omm>
<omm id="CCSDS_OMM_VERS" version="2.0">
<header><CREATION_DATE/><ORIGINATOR/></header><body><segment><metadata><OBJECT_NAME>ONEWEB-0090</OBJECT_NAME><OBJECT_ID>2020-020D</OBJECT_ID><CENTER_NAME>EARTH</CENTER_NAME><REF_FRAME>TEME</REF_FRAME><TIME_SYSTEM>UTC</TIME_SYSTEM><MEAN_ELEMENT_THEORY>SGP4</MEAN_ELEMENT_THEORY></metadata><data><meanElements><EPOCH>2024-09-14T02:11:07.122624</EPOCH><MEAN_MOTION>13.11414283</MEAN_MOTION><ECCENTRICITY>.0001791</ECCENTRICITY><INCLINATION>87.8979</INCLINATION><RA_OF_ASC_NODE>148.7321</RA_OF_ASC_NODE><ARG_OF_PERICENTER>75.5370</ARG_OF_PERICENTER><MEAN_ANOMALY>284.5956</MEAN_ANOMALY></meanElements><tleParameters><EPHEMERIS_TYPE>0</EPHEMERIS_TYPE><CLASSIFICATION_TYPE>U</CLASSIFICATION_TYPE><NORAD_CAT_ID>45427</NORAD_CAT_ID><ELEMENT_SET_NO>999</ELEMENT_SET_NO><REV_AT_EPOCH>21865</REV_AT_EPOCH><BSTAR>.68391E-3</BSTAR><MEAN_MOTION_DOT>.255E-5</MEAN_MOTION_DOT><MEAN_MOTION_DDOT>0</MEAN_MOTION_DDOT></tleParameters></data></segment></body></omm>
<omm id="CCSDS_OMM_VERS" version="2.0">
<header><CREATION_DATE/><ORIGINATOR/></header><body><segment><metadata><OBJECT_NAME>ONEWEB-0061</OBJECT_NAME><OBJECT_ID>2020-020E</OBJECT_ID><CENTER_NAME>EARTH</CENTER_NAME><REF_FRAME>TEME</REF_FRAME><TIME_SYSTEM>UTC</TIME_SYSTEM><MEAN_ELEMENT_THEORY>SGP4</MEAN_ELEMENT_THEORY></metadata><data><meanElements><EPOCH>2024-09-13T10:28:28.627680</EPOCH><MEAN_MOTION>13.11417260</MEAN_MOTION><ECCENTRICITY>.0001769</ECCENTRICITY><INCLINATION>87.8979</INCLINATION><RA_OF_ASC_NODE>148.8556</RA_OF_ASC_NODE><ARG_OF_PERICENTER>74.6202</ARG_OF_PERICENTER><MEAN_ANOMALY>285.5121</MEAN_ANOMALY></meanElements><tleParameters><EPHEMERIS_TYPE>0</EPHEMERIS_TYPE><CLASSIFICATION_TYPE>U</CLASSIFICATION_TYPE><NORAD_CAT_ID>45428</NORAD_CAT_ID><ELEMENT_SET_NO>999</ELEMENT_SET_NO><REV_AT_EPOCH>21851</REV_AT_EPOCH><BSTAR>-.15599E-2</BSTAR><MEAN_MOTION_DOT>-.54E-5</MEAN_MOTION_DOT><MEAN_MOTION_DDOT>0</MEAN_MOTION_DDOT></tleParameters></data></segment></body></omm>
<omm id="CCSDS_OMM_VERS" version="2.0">
<header><CREATION_DATE/><ORIGINATOR/></header><body><segment><metadata><OBJECT_NAME>ONEWEB-0081</OBJECT_NAME><OBJECT_ID>2020-020F</OBJECT_ID><CENTER_NAME>EARTH</CENTER_NAME><REF_FRAME>TEME</REF_FRAME><TIME_SYSTEM>UTC</TIME_SYSTEM><MEAN_ELEMENT_THEORY>SGP4</MEAN_ELEMENT_THEORY></metadata><data><meanElements><EPOCH>2024-09-13T22:50:53.825568</EPOCH><MEAN_MOTION>13.11418090</MEAN_MOTION><ECCENTRICITY>.0001558</ECCENTRICITY><INCLINATION>87.8976</INCLINATION><RA_OF_ASC_NODE>148.7722</RA_OF_ASC_NODE><ARG_OF_PERICENTER>75.5948</ARG_OF_PERICENTER><MEAN_ANOMALY>284.5353</MEAN_ANOMALY></meanElements><tleParameters><EPHEMERIS_TYPE>0</EPHEMERIS_TYPE><CLASSIFICATION_TYPE>U</CLASSIFICATION_TYPE><NORAD_CAT_ID>45429</NORAD_CAT_ID><ELEMENT_SET_NO>999</ELEMENT_SET_NO><REV_AT_EPOCH>21869</REV_AT_EPOCH><BSTAR>-.93218E-3</BSTAR><MEAN_MOTION_DOT>-.318E-5</MEAN_MOTION_DOT><MEAN_MOTION_DDOT>0</MEAN_MOTION_DDOT></tleParameters></data></segment></body></omm>
<omm id="CCSDS_OMM_VERS" version="2.0">
<header><CREATION_DATE/><ORIGINATOR/></header><body><segment><metadata><OBJECT_NAME>ONEWEB-0069</OBJECT_NAME><OBJECT_ID>2020-020G</OBJECT_ID><CENTER_NAME>EARTH</CENTER_NAME><REF_FRAME>TEME</REF_FRAME><TIME_SYSTEM>UTC</TIME_SYSTEM><MEAN_ELEMENT_THEORY>SGP4</MEAN_ELEMENT_THEORY></metadata><data><meanElements><EPOCH>2024-09-14T04:05:51.831456</EPOCH><MEAN_MOTION>13.11416176</MEAN_MOTION><ECCENTRICITY>.0001822</ECCENTRICITY><INCLINATION>87.8976</INCLINATION><RA_OF_ASC_NODE>148.7180</RA_OF_ASC_NODE><ARG_OF_PERICENTER>76.4735</ARG_OF_PERICENTER><MEAN_ANOMALY>283.6596</MEAN_ANOMALY></meanElements><tleParameters><EPHEMERIS_TYPE>0</EPHEMERIS_TYPE><CLASSIFICATION_TYPE>U</CLASSIFICATION_TYPE><NORAD_CAT_ID>45430</NORAD_CAT_ID><ELEMENT_SET_NO>999</ELEMENT_SET_NO><REV_AT_EPOCH>21866</REV_AT_EPOCH><BSTAR>.11864E-3</BSTAR><MEAN_MOTION_DOT>.55E-6</MEAN_MOTION_DOT><MEAN_MOTION_DDOT>0</MEAN_MOTION_DDOT></tleParameters></data></segment></body></omm>
<omm id="CCSDS_OMM_VERS" version="2.0">
<header><CREATION_DATE/><ORIGINATOR/></header><body><segment><metadata><OBJECT_NAME>ONEWEB-0031</OBJECT_NAME><OBJECT_ID>2020-020H</OBJECT_ID><CENTER_NAME>EARTH</CENTER_NAME><REF_FRAME>TEME</REF_FRAME><TIME_SYSTEM>UTC</TIME_SYSTEM><MEAN_ELEMENT_THEORY>SGP4</MEAN_ELEMENT_THEORY></metadata><data><meanElements><EPOCH>2024-09-13T18:15:01.523520</EPOCH><MEAN_MOTION>13.11422854</MEAN_MOTION><ECCENTRICITY>.0001842</ECCENTRICITY><INCLINATION>87.8983</INCLINATION><RA_OF_ASC_NODE>148.8125</RA_OF_ASC_NODE><ARG_OF_PERICENTER>73.8704</ARG_OF_PERICENTER><MEAN_ANOMALY>286.2626</MEAN_ANOMALY></meanElements><tleParameters><EPHEMERIS_TYPE>0</EPHEMERIS_TYPE><CLASSIFICATION_TYPE>U</CLASSIFICATION_TYPE><NORAD_CAT_ID>45431</NORAD_CAT_ID><ELEMENT_SET_NO>999</ELEMENT_SET_NO><REV_AT_EPOCH>21858</REV_AT_EPOCH><BSTAR>.1245E-2</BSTAR><MEAN_MOTION_DOT>.454E-5</MEAN_MOTION_DOT><MEAN_MOTION_DDOT>0</MEAN_MOTION_DDOT></tleParameters></data></segment></body></omm>
<omm id="CCSDS_OMM_VERS" version="2.0">
<header><CREATION_DATE/><ORIGINATOR/></header><body><segment><metadata><OBJECT_NAME>ONEWEB-0027</OBJECT_NAME><OBJECT_ID>2020-020J</OBJECT_ID><CENTER_NAME>EARTH</CENTER_NAME><REF_FRAME>TEME</REF_FRAME><TIME_SYSTEM>UTC</TIME_SYSTEM><MEAN_ELEMENT_THEORY>SGP4</MEAN_ELEMENT_THEORY></metadata><data><meanElements><EPOCH>2024-09-14T09:42:51.143040</EPOCH><MEAN_MOTION>13.17651724</MEAN_MOTION><ECCENTRICITY>.0002085</ECCENTRICITY><INCLINATION>87.9135</INCLINATION><RA_OF_ASC_NODE>133.4920</RA_OF_ASC_NODE><ARG_OF_PERICENTER>74.1795</ARG_OF_PERICENTER><MEAN_ANOMALY>285.9566</MEAN_ANOMALY></meanElements><tleParameters><EPHEMERIS_TYPE>0</EPHEMERIS_TYPE><CLASSIFICATION_TYPE>U</CLASSIFICATION_TYPE><NORAD_CAT_ID>45432</NORAD_CAT_ID><ELEMENT_SET_NO>999</ELEMENT_SET_NO><REV_AT_EPOCH>22197</REV_AT_EPOCH><BSTAR>.1926E-3</BSTAR><MEAN_MOTION_DOT>.88E-6</MEAN_MOTION_DOT><MEAN_MOTION_DDOT>0</MEAN_MOTION_DDOT></tleParameters></data></segment></body></omm>
<omm id="CCSDS_OMM_VERS" version="2.0">
<header><CREATION_DATE/><ORIGINATOR/></header><body><segment><metadata><OBJECT_NAME>ONEWEB-0064</OBJECT_NAME><OBJECT_ID>2020-020K</OBJECT_ID><CENTER_NAME>EARTH</CENTER_NAME><REF_FRAME>TEME</REF_FRAME><TIME_SYSTEM>UTC</TIME_SYSTEM><MEAN_ELEMENT_THEORY>SGP4</MEAN_ELEMENT_THEORY></metadata><data><meanElements><EPOCH>2024-09-13T10:53:08.944800</EPOCH><MEAN_MOTION>13.11420412</MEAN_MOTION><ECCENTRICITY>.0002001</ECCENTRICITY><INCLINATION>87.8979</INCLINATION><RA_OF_ASC_NODE>148.8784</RA_OF_ASC_NODE><ARG_OF_PERICENTER>77.0091</ARG_OF_PERICENTER><MEAN_ANOMALY>283.1260</MEAN_ANOMALY></meanElements><tleParameters><EPHEMERIS_TYPE>0</EPHEMERIS_TYPE><CLASSIFICATION_TYPE>U</CLASSIFICATION_TYPE><NORAD_CAT_ID>45433</NORAD_CAT_ID><ELEMENT_SET_NO>999</ELEMENT_SET_NO><REV_AT_EPOCH>21858</REV_AT_EPOCH><BSTAR>.13512E-2</BSTAR><MEAN_MOTION_DOT>.492E-5</MEAN_MOTION_DOT><MEAN_MOTION_DDOT>0</MEAN_MOTION_DDOT></tleParameters></data></segment></body></omm>

</ndm>
